{
  "type": "FeatureCollection",
  "features": [
    {
      "type": "Feature",
      "properties": {
        "name": "my_aoi"
      },
      "geometry": {
        "type": "Polygon",
        "coordinates": [
          [
            [
              -88.853257,
              33.366091
            ],
            [
              -88.629304,
              33.366091
            ],
            [
              -88.629304,
              33.535099
            ],
            [
              -88.853257,
              33.535099
            ],
            [
              -88.853257,
              33.366091
            ]
          ]
        ]
      }
    }
  ]
}